{"generatedAt":"2026-03-29T07:13:06.732764Z","satellites":[{"name":"ONEWEB-0566","tle1":"1 56061U 23043R   26087.73343826  .00000091  00000+0  18785-3 0  9990","tle2":"2 56061  87.9171 260.0052 0002037  93.2019 266.9348 13.21824733147604"},{"name":"ONEWEB-0568","tle1":"1 56062U 23043S   26087.91013714 -.00000026  00000+0 -10231-3 0  9999","tle2":"2 56062  87.9035 244.7278 0001473  95.2471 264.8828 13.16593202148418"},{"name":"ONEWEB-0574","tle1":"1 56063U 23043T   26087.72685072  .00000110  00000+0  23591-3 0  9996","tle2":"2 56063  87.9185 260.0018 0001594 101.4575 258.6738 13.21827279147642"},{"name":"ONEWEB-0575","tle1":"1 56064U 23043U   26087.90380331 -.00000013  00000+0 -67238-4 0  9998","tle2":"2 56064  87.9034 244.7262 0001360 110.0950 250.0328 13.16595188148401"},{"name":"ONEWEB-0576","tle1":"1 56065U 23043V   26087.88481184  .00000101  00000+0  22950-3 0  9991","tle2":"2 56065  87.9036 244.7347 0001493 104.7502 255.3794 13.16594928148392"},{"name":"ONEWEB-0577","tle1":"1 56066U 23043W   26087.81512883 -.00000796  00000+0 -21160-2 0  9999","tle2":"2 56066  87.9035 244.7477 0001433 124.9306 235.1960 13.16596336148415"},{"name":"ONEWEB-0578","tle1":"1 56067U 23043X   26087.86508210  .00000007  00000+0 -13911-4 0  9995","tle2":"2 56067  87.9173 259.9788 0001504  89.7019 270.4288 13.21825203147621"},{"name":"ONEWEB-0579","tle1":"1 56068U 23043Y   26087.70380675 -.00000039  00000+0 -12671-3 0  9999","tle2":"2 56068  87.9179 260.0028 0001935  99.5668 260.5685 13.21824228147611"},{"name":"ONEWEB-0581","tle1":"1 56069U 23043Z   26087.82147241 -.00000002  00000+0 -39293-4 0  9993","tle2":"2 56069  87.9034 244.7573 0001521 120.2432 239.8850 13.16595586148382"},{"name":"ONEWEB-0609","tle1":"1 56070U 23043AA  26087.94321224 -.00000026  00000+0 -10433-3 0  9993","tle2":"2 56070  87.8925 275.2331 0001734  90.3579 269.7750 13.15548951145884"},{"name":"ONEWEB-0613","tle1":"1 56071U 23043AB  26087.55823956 -.00000005  00000+0 -46483-4 0  9992","tle2":"2 56071  87.8923 275.3208 0001962  93.7633 266.3722 13.15549377145838"},{"name":"ONEWEB-0630","tle1":"1 56072U 23043AC  26087.78165324 -.00000048  00000+0 -16190-3 0  9994","tle2":"2 56072  87.8925 275.2459 0001976  94.7006 265.4350 13.15549638145857"},{"name":"ONEWEB-0632","tle1":"1 56073U 23043AD  26087.77690653 -.00000190  00000+0 -53797-3 0  9994","tle2":"2 56073  87.8928 275.2646 0001624  99.8310 260.3004 13.15548230145850"},{"name":"ONEWEB-0633","tle1":"1 56074U 23043AE  26087.92267779 -.00000089  00000+0 -27062-3 0  9994","tle2":"2 56074  87.8938 275.2046 0002133  89.3288 270.8087 13.15549182145854"},{"name":"ONEWEB-0634","tle1":"1 56075U 23043AF  26087.90841850  .00000022  00000+0  24463-4 0  9999","tle2":"2 56075  87.8928 275.2545 0001594  82.2840 277.8471 13.15550300145841"},{"name":"ONEWEB-0635","tle1":"1 56076U 23043AG  26087.90365778  .00000097  00000+0  22278-3 0  9993","tle2":"2 56076  87.8937 275.2112 0001551 102.5662 257.5642 13.15549635145870"},{"name":"ONEWEB-0636","tle1":"1 56077U 23043AH  26087.81967779  .00000196  00000+0  48566-3 0  9991","tle2":"2 56077  87.8928 275.2405 0001564  99.8322 260.2985 13.15549667145844"},{"name":"ONEWEB-0637","tle1":"1 56078U 23043AJ  26087.88939801  .00000135  00000+0  32365-3 0  9997","tle2":"2 56078  87.8927 275.2442 0001345  91.9094 268.2190 13.15549415145871"},{"name":"ONEWEB-0647","tle1":"1 56079U 23043AK  26087.88465267  .00000127  00000+0  30423-3 0  9992","tle2":"2 56079  87.8926 275.2573 0001728  96.6371 263.4956 13.15548749145866"},{"name":"ONEWEB-0651","tle1":"1 56080U 23043AL  26087.87989414  .00000312  00000+0  79585-3 0  9996","tle2":"2 56080  87.8923 275.2531 0001453  98.5400 261.5896 13.15550199147066"},{"name":"ONEWEB-0718","tle1":"1 56081U 23043AM  26087.87513761 -.00000069  00000+0 -21804-3 0  9997","tle2":"2 56081  87.8925 275.2345 0001734  76.1172 284.0151 13.15550154145874"},{"name":"ONEWEB-0561","tle1":"1 56710U 23068A   26087.81982709  .00000051  00000+0  93883-4 0  9995","tle2":"2 56710  87.9146 290.4900 0001708 104.6153 255.5170 13.20771030138894"},{"name":"ONEWEB-0668","tle1":"1 56711U 23068B   26087.79614594  .00000149  00000+0  35570-3 0  9993","tle2":"2 56711  87.9042 244.7461 0001396  83.1871 276.9419 13.16593133141208"},{"name":"ONEWEB-0676","tle1":"1 56712U 23068C   26087.88005165  .00000084  00000+0  18710-3 0  9997","tle2":"2 56712  87.9031 244.7398 0001558 110.7828 249.3470 13.16595646141139"},{"name":"ONEWEB-0677","tle1":"1 56713U 23068D   26087.80876202  .00000494  00000+0  11835-2 0  9993","tle2":"2 56713  87.9143 290.4845 0001601  91.7348 268.3969 13.20761898139199"},{"name":"ONEWEB-0678","tle1":"1 56714U 23068E   26087.91951046 -.00000046  00000+0 -15621-3 0  9999","tle2":"2 56714  87.8938 275.2098 0001930  97.8367 262.2982 13.15549400138739"},{"name":"ONEWEB-0679","tle1":"1 56715U 23068F   26087.91489197 -.00000011  00000+0 -62277-4 0  9995","tle2":"2 56715  87.9041 244.7203 0001109 100.0623 260.0633 13.16594980141169"},{"name":"ONEWEB-0680","tle1":"1 56716U 23068G   26087.85847956 -.00000016  00000+0 -70468-4 0  9996","tle2":"2 56716  87.9185 259.9733 0001267  81.9249 278.2028 13.21828603140482"},{"name":"ONEWEB-0681","tle1":"1 56717U 23068H   26087.83791947  .00000018  00000+0  11467-4 0  9997","tle2":"2 56717  87.9172 259.9839 0001616 131.3958 228.7315 13.21827328140472"},{"name":"ONEWEB-0682","tle1":"1 56718U 23068J   26087.79120794 -.00000035  00000+0 -12726-3 0  9998","tle2":"2 56718  87.8925 275.2393 0001294  79.6717 280.4560 13.15548248138886"},{"name":"ONEWEB-0683","tle1":"1 56719U 23068K   26087.81493437  .00000168  00000+0  41305-3 0  9999","tle2":"2 56719  87.8938 275.2304 0001516  84.0377 276.0926 13.15548829138851"},{"name":"ONEWEB-0684","tle1":"1 56720U 23068L   26087.74680298  .00000213  00000+0  53110-3 0  9994","tle2":"2 56720  87.8934 275.2362 0003079  90.8946 269.2537 13.15549299138670"},{"name":"ONEWEB-0686","tle1":"1 56721U 23068M   26087.79929931  .00000027  00000+0  37005-4 0  9999","tle2":"2 56721  87.9021 244.7786 0001813  88.5160 271.6178 13.16595360141130"},{"name":"ONEWEB-0694","tle1":"1 56722U 23068N   26087.88164622  .00000122  00000+0  28565-3 0  9994","tle2":"2 56722  87.9043 244.7109 0001408  86.6351 273.4941 13.16595222141208"},{"name":"ONEWEB-0696","tle1":"1 56723U 23068P   26087.78005642 -.00000120  00000+0 -35367-3 0  9998","tle2":"2 56723  87.8928 275.2734 0002126  98.2955 261.8416 13.15546411138793"},{"name":"ONEWEB-0703","tle1":"1 56724U 23068Q   26087.56140389  .00000005  00000+0 -20633-4 0  9995","tle2":"2 56724  87.8926 275.2982 0002402 113.4599 246.6783 13.15549464138652"},{"name":"ONEWEB-0721","tle1":"1 56725U 23068R   26087.78969758  .00000055  00000+0  97539-4 0  9992","tle2":"2 56725  86.6727 111.1886 0001941  93.8087 266.3268 13.22463200147311"},{"name":"ONEWEB-0015","tle1":"1 61594U 24188A   26087.81636560 -.00000346  00000+0 -10119-2 0  9994","tle2":"2 61594  87.8893  37.0698 0001282  85.2125 274.9150 13.11420505 73920"},{"name":"ONEWEB-0687","tle1":"1 61595U 24188B   26087.81437876  .00000066  00000+0  13665-3 0  9991","tle2":"2 61595  87.9166  21.8432 0001485  63.3858 296.7426 13.17649988 75314"},{"name":"ONEWEB-0688","tle1":"1 61596U 24188C   26087.84305577 -.00000151  00000+0 -42195-3 0  9994","tle2":"2 61596  87.9168  21.8370 0000677 102.4082 257.7125 13.17651342 75314"},{"name":"ONEWEB-0689","tle1":"1 61597U 24188D   26087.85028902  .00000543  00000+0  14965-2 0  9996","tle2":"2 61597  87.8912  37.0068 0001855  69.4075 290.7252 13.11417180 73924"},{"name":"ONEWEB-0690","tle1":"1 61598U 24188E   26087.86046586  .00000177  00000+0  46238-3 0  9998","tle2":"2 61598  87.8903  37.0238 0002275  96.2313 263.9074 13.11415813 74100"},{"name":"ONEWEB-0691","tle1":"1 61599U 24188F   26087.85537457  .00000411  00000+0  11230-2 0  9994","tle2":"2 61599  87.8910  36.9263 0001428  79.1872 280.9417 13.11417161 73954"},{"name":"ONEWEB-0692","tle1":"1 61600U 24188G   26087.87570049 -.00000365  00000+0 -10653-2 0  9991","tle2":"2 61600  87.8892  37.0505 0002546  67.3596 292.7801 13.11416273 73941"},{"name":"ONEWEB-0693","tle1":"1 61601U 24188H   26087.85487402  .00000019  00000+0  16169-4 0  9994","tle2":"2 61601  87.9167  21.8560 0002162 101.4947 258.6427 13.17649299 75303"},{"name":"ONEWEB-0695","tle1":"1 61602U 24188J   26087.85197120  .00000410  00000+0  11208-2 0  9992","tle2":"2 61602  87.8894  37.0468 0002097  65.1970 294.9376 13.11417947 73935"},{"name":"ONEWEB-0697","tle1":"1 61603U 24188K   26087.88418941 -.00000460  00000+0 -13335-2 0  9993","tle2":"2 61603  87.8895  37.0297 0002586  70.3865 289.7542 13.11417762 73922"},{"name":"ONEWEB-0698","tle1":"1 61604U 24188L   26087.86215854  .00000064  00000+0  14483-3 0  9994","tle2":"2 61604  87.8892  37.0497 0003054  85.1454 275.0022 13.11415759 73948"},{"name":"ONEWEB-0699","tle1":"1 61605U 24188M   26087.88745932 -.00000086  00000+0 -28211-3 0  9992","tle2":"2 61605  87.8808  52.2457 0002348  76.1002 284.0387 13.10363971 72798"},{"name":"ONEWEB-0700","tle1":"1 61606U 24188N   26087.88909779  .00000733  00000+0  20642-2 0  9990","tle2":"2 61606  87.8825  52.1417 0002337  66.8671 293.2703 13.10372713 72786"},{"name":"ONEWEB-0701","tle1":"1 61607U 24188P   26087.90568954  .00000083  00000+0  20134-3 0  9995","tle2":"2 61607  87.8808  52.2414 0002661  73.4225 286.7194 13.10370047 72795"},{"name":"ONEWEB-0702","tle1":"1 61608U 24188Q   26087.83163786  .00000290  00000+0  78197-3 0  9994","tle2":"2 61608  87.8913  36.9470 0002658  63.4143 296.7257 13.11417601 73957"},{"name":"ONEWEB-0704","tle1":"1 61609U 24188R   26087.89408086  .00000559  00000+0  15665-2 0  9994","tle2":"2 61609  87.8822  52.2220 0002569  63.5035 296.6356 13.10370518 72775"},{"name":"ONEWEB-0705","tle1":"1 61610U 24188S   26087.82268991  .00000394  00000+0  10911-2 0  9994","tle2":"2 61610  87.8813  52.2474 0001752  45.4247 314.7023 13.10371354 64936"}]}